{
  "type": "FeatureCollection",
  "features": [
    {
      "type": "Feature",
      "properties": {
        "norad_id": 37918,
        "name": "FENGYUN 1C DEB",
        "group": "fengyun-1c-debris",
        "lat": -25.981996851836172,
        "lon": 124.98646806927528,
        "alt_km": 752.4514397238463,
        "timestamp": "2025-12-25T09:48:52.579627+00:00",
        "meta_object_name": "FENGYUN 1C DEB",
        "meta_object_id": "1999-025ENT",
        "meta_epoch": "2025-12-24T14:26:11.945760",
        "meta_mean_motion": 14.34427362,
        "meta_eccentricity": 0.00546335,
        "meta_inclination": 99.0295,
        "meta_ra_of_asc_node": 308.5879,
        "meta_arg_of_pericenter": 248.3892,
        "meta_mean_anomaly": 111.1466,
        "meta_ephemeris_type": 0,
        "meta_classification_type": "U",
        "meta_norad_cat_id": 37918,
        "meta_element_set_no": 999,
        "meta_rev_at_epoch": 3712,
        "meta_bstar": 0.00066196779,
        "meta_mean_motion_dot": 1.847e-05,
        "meta_mean_motion_ddot": 0,
        "tle_line1": "1 37918U 99025ENT 25358.60152715  .00001847  00000+0  66197-3 0  9994",
        "tle_line2": "2 37918  99.0295 308.5879 0054633 248.3892 111.1466 14.34427362 37120"
      },
      "geometry": {
        "type": "Point",
        "coordinates": [
          124.98646806927528,
          -25.981996851836172
        ]
      }
    },
    {
      "type": "Feature",
      "properties": {
        "norad_id": 37919,
        "name": "FENGYUN 1C DEB",
        "group": "fengyun-1c-debris",
        "lat": 32.72517736317219,
        "lon": -68.08730822507003,
        "alt_km": 779.0608668933255,
        "timestamp": "2025-12-25T09:48:52.579637+00:00",
        "meta_object_name": "FENGYUN 1C DEB",
        "meta_object_id": "1999-025ENU",
        "meta_epoch": "2025-12-21T13:05:37.870080",
        "meta_mean_motion": 14.26784577,
        "meta_eccentricity": 0.0049416,
        "meta_inclination": 99.0587,
        "meta_ra_of_asc_node": 293.7998,
        "meta_arg_of_pericenter": 351.2429,
        "meta_mean_anomaly": 8.7883,
        "meta_ephemeris_type": 0,
        "meta_classification_type": "U",
        "meta_norad_cat_id": 37919,
        "meta_element_set_no": 999,
        "meta_rev_at_epoch": 65034,
        "meta_bstar": 0.0004279,
        "meta_mean_motion_dot": 1.003e-05,
        "meta_mean_motion_ddot": 0,
        "tle_line1": "1 37919U 99025ENU 25355.54557720  .00001003  00000+0  42790-3 0  9997",
        "tle_line2": "2 37919  99.0587 293.7998 0049416 351.2429   8.7883 14.26784577650349"
      },
      "geometry": {
        "type": "Point",
        "coordinates": [
          -68.08730822507003,
          32.72517736317219
        ]
      }
    },
    {
      "type": "Feature",
      "properties": {
        "norad_id": 37921,
        "name": "FENGYUN 1C DEB",
        "group": "fengyun-1c-debris",
        "lat": -34.54444154366982,
        "lon": 46.48779857130759,
        "alt_km": 926.0608700731291,
        "timestamp": "2025-12-25T09:48:52.579647+00:00",
        "meta_object_name": "FENGYUN 1C DEB",
        "meta_object_id": "1999-025ENW",
        "meta_epoch": "2025-12-21T19:55:24.950496",
        "meta_mean_motion": 13.95159889,
        "meta_eccentricity": 0.00843197,
        "meta_inclination": 99.021,
        "meta_ra_of_asc_node": 36.7092,
        "meta_arg_of_pericenter": 74.058,
        "meta_mean_anomaly": 286.9853,
        "meta_ephemeris_type": 0,
        "meta_classification_type": "U",
        "meta_norad_cat_id": 37921,
        "meta_element_set_no": 999,
        "meta_rev_at_epoch": 63274,
        "meta_bstar": 0.00031229262,
        "meta_mean_motion_dot": 3.91e-06,
        "meta_mean_motion_ddot": 0,
        "tle_line1": "1 37921U 99025ENW 25355.83014989  .00000391  00000+0  31229-3 0  9991",
        "tle_line2": "2 37921  99.0210  36.7092 0084319  74.0580 286.9853 13.95159889632742"
      },
      "geometry": {
        "type": "Point",
        "coordinates": [
          46.48779857130759,
          -34.54444154366982
        ]
      }
    },
    {
      "type": "Feature",
      "properties": {
        "norad_id": 37925,
        "name": "FENGYUN 1C DEB",
        "group": "fengyun-1c-debris",
        "lat": 23.811619570993944,
        "lon": -133.82113721327678,
        "alt_km": 620.367064455796,
        "timestamp": "2025-12-25T09:48:52.579657+00:00",
        "meta_object_name": "FENGYUN 1C DEB",
        "meta_object_id": "1999-025EPA",
        "meta_epoch": "2025-12-22T21:41:38.860800",
        "meta_mean_motion": 14.80526884,
        "meta_eccentricity": 0.0055816,
        "meta_inclination": 99.0855,
        "meta_ra_of_asc_node": 227.3947,
        "meta_arg_of_pericenter": 311.3833,
        "meta_mean_anomaly": 48.2583,
        "meta_ephemeris_type": 0,
        "meta_classification_type": "U",
        "meta_norad_cat_id": 37925,
        "meta_element_set_no": 999,
        "meta_rev_at_epoch": 65833,
        "meta_bstar": 0.0018808,
        "meta_mean_motion_dot": 0.00014755,
        "meta_mean_motion_ddot": 0,
        "tle_line1": "1 37925U 99025EPA 25356.90392200  .00014755  00000+0  18808-2 0  9995",
        "tle_line2": "2 37925  99.0855 227.3947 0055816 311.3833  48.2583 14.80526884658336"
      },
      "geometry": {
        "type": "Point",
        "coordinates": [
          -133.82113721327678,
          23.811619570993944
        ]
      }
    },
    {
      "type": "Feature",
      "properties": {
        "norad_id": 37926,
        "name": "FENGYUN 1C DEB",
        "group": "fengyun-1c-debris",
        "lat": -11.683221135821196,
        "lon": -119.33201451475797,
        "alt_km": 776.119598480489,
        "timestamp": "2025-12-25T09:48:52.579667+00:00",
        "meta_object_name": "FENGYUN 1C DEB",
        "meta_object_id": "1999-025EPB",
        "meta_epoch": "2025-12-24T16:38:31.240896",
        "meta_mean_motion": 14.24297977,
        "meta_eccentricity": 0.00546105,
        "meta_inclination": 98.7222,
        "meta_ra_of_asc_node": 61.777,
        "meta_arg_of_pericenter": 187.4316,
        "meta_mean_anomaly": 297.4382,
        "meta_ephemeris_type": 0,
        "meta_classification_type": "U",
        "meta_norad_cat_id": 37926,
        "meta_element_set_no": 999,
        "meta_rev_at_epoch": 74440,
        "meta_bstar": 0.001511302,
        "meta_mean_motion_dot": 3.501e-05,
        "meta_mean_motion_ddot": 0,
        "tle_line1": "1 37926U 99025EPB 25358.69341714  .00003501  00000+0  15113-2 0  9991",
        "tle_line2": "2 37926  98.7222  61.7770 0054610 187.4316 297.4382 14.24297977744409"
      },
      "geometry": {
        "type": "Point",
        "coordinates": [
          -119.33201451475797,
          -11.683221135821196
        ]
      }
    },
    {
      "type": "Feature",
      "properties": {
        "norad_id": 37927,
        "name": "FENGYUN 1C DEB",
        "group": "fengyun-1c-debris",
        "lat": 5.9625724851934265,
        "lon": -34.938968990275896,
        "alt_km": 653.5197002965715,
        "timestamp": "2025-12-25T09:48:52.579677+00:00",
        "meta_object_name": "FENGYUN 1C DEB",
        "meta_object_id": "1999-025EPC",
        "meta_epoch": "2025-12-20T03:25:18.230304",
        "meta_mean_motion": 14.72067181,
        "meta_eccentricity": 0.00083592,
        "meta_inclination": 98.8071,
        "meta_ra_of_asc_node": 138.4338,
        "meta_arg_of_pericenter": 253.9424,
        "meta_mean_anomaly": 106.086,
        "meta_ephemeris_type": 0,
        "meta_classification_type": "U",
        "meta_norad_cat_id": 37927,
        "meta_element_set_no": 999,
        "meta_rev_at_epoch": 65225,
        "meta_bstar": 0.0024443804,
        "meta_mean_motion_dot": 0.00015349,
        "meta_mean_motion_ddot": 0,
        "tle_line1": "1 37927U 99025EPC 25354.14257211  .00015349  00000+0  24444-2 0  9996",
        "tle_line2": "2 37927  98.8071 138.4338 0008359 253.9424 106.0860 14.72067181652255"
      },
      "geometry": {
        "type": "Point",
        "coordinates": [
          -34.938968990275896,
          5.9625724851934265
        ]
      }
    },
    {
      "type": "Feature",
      "properties": {
        "norad_id": 37928,
        "name": "FENGYUN 1C DEB",
        "group": "fengyun-1c-debris",
        "lat": -36.32957820137296,
        "lon": -118.91223272234356,
        "alt_km": 730.2554933375905,
        "timestamp": "2025-12-25T09:48:52.579686+00:00",
        "meta_object_name": "FENGYUN 1C DEB",
        "meta_object_id": "1999-025EPD",
        "meta_epoch": "2025-12-21T09:04:11.551008",
        "meta_mean_motion": 14.37132631,
        "meta_eccentricity": 0.0073076,
        "meta_inclination": 98.9148,
        "meta_ra_of_asc_node": 230.2847,
        "meta_arg_of_pericenter": 7.9876,
        "meta_mean_anomaly": 352.2454,
        "meta_ephemeris_type": 0,
        "meta_classification_type": "U",
        "meta_norad_cat_id": 37928,
        "meta_element_set_no": 999,
        "meta_rev_at_epoch": 81316,
        "meta_bstar": 0.00050775945,
        "meta_mean_motion_dot": 1.508e-05,
        "meta_mean_motion_ddot": 0,
        "tle_line1": "1 37928U 99025EPD 25355.37791147  .00001508  00000+0  50776-3 0  9994",
        "tle_line2": "2 37928  98.9148 230.2847 0073076   7.9876 352.2454 14.37132631813161"
      },
      "geometry": {
        "type": "Point",
        "coordinates": [
          -118.91223272234356,
          -36.32957820137296
        ]
      }
    }
  ]
}